{
  "type": "FeatureCollection",
  "features": [
    {
      "type": "Feature",
      "properties": {
        "norad_id": 46986,
        "name": "FENGYUN 1C DEB",
        "group": "fengyun-1c-debris",
        "lat": 81.63083427877301,
        "lon": -76.3822670526852,
        "alt_km": 712.2600101426387,
        "timestamp": "2025-12-26T07:29:18.746244+00:00",
        "meta_object_name": "FENGYUN 1C DEB",
        "meta_object_id": "1999-025EZL",
        "meta_epoch": "2025-12-23T19:19:36.010560",
        "meta_mean_motion": 14.47217412,
        "meta_eccentricity": 0.01051734,
        "meta_inclination": 98.2364,
        "meta_ra_of_asc_node": 21.2604,
        "meta_arg_of_pericenter": 178.1247,
        "meta_mean_anomaly": 182.0361,
        "meta_ephemeris_type": 0,
        "meta_classification_type": "U",
        "meta_norad_cat_id": 46986,
        "meta_element_set_no": 999,
        "meta_rev_at_epoch": 63560,
        "meta_bstar": 0.00037494838,
        "meta_mean_motion_dot": 1.421e-05,
        "meta_mean_motion_ddot": 0,
        "tle_line1": "1 46986U 99025EZL 25357.80527790  .00001421  00000+0  37495-3 0  9996",
        "tle_line2": "2 46986  98.2364  21.2604 0105173 178.1247 182.0361 14.47217412635603"
      },
      "geometry": {
        "type": "Point",
        "coordinates": [
          -76.3822670526852,
          81.63083427877301
        ]
      }
    },
    {
      "type": "Feature",
      "properties": {
        "norad_id": 46989,
        "name": "FENGYUN 1C DEB",
        "group": "fengyun-1c-debris",
        "lat": 64.64804834216233,
        "lon": 2.858414303687381,
        "alt_km": 1136.9015440607918,
        "timestamp": "2025-12-26T07:29:18.746254+00:00",
        "meta_object_name": "FENGYUN 1C DEB",
        "meta_object_id": "1999-025EZP",
        "meta_epoch": "2025-12-24T05:21:04.103424",
        "meta_mean_motion": 13.7943268,
        "meta_eccentricity": 0.02440893,
        "meta_inclination": 99.5054,
        "meta_ra_of_asc_node": 160.0523,
        "meta_arg_of_pericenter": 306.9712,
        "meta_mean_anomaly": 237.4301,
        "meta_ephemeris_type": 0,
        "meta_classification_type": "U",
        "meta_norad_cat_id": 46989,
        "meta_element_set_no": 999,
        "meta_rev_at_epoch": 71200,
        "meta_bstar": 0.0046273535,
        "meta_mean_motion_dot": 5.906e-05,
        "meta_mean_motion_ddot": 0,
        "tle_line1": "1 46989U 99025EZP 25358.22296416  .00005906  00000+0  46274-2 0  9990",
        "tle_line2": "2 46989  99.5054 160.0523 0244089 306.9712 237.4301 13.79432680712005"
      },
      "geometry": {
        "type": "Point",
        "coordinates": [
          2.858414303687381,
          64.64804834216233
        ]
      }
    },
    {
      "type": "Feature",
      "properties": {
        "norad_id": 46990,
        "name": "FENGYUN 1C DEB",
        "group": "fengyun-1c-debris",
        "lat": -68.32261364399285,
        "lon": 2.2479849354129358,
        "alt_km": 981.0521381974086,
        "timestamp": "2025-12-26T07:29:18.746265+00:00",
        "meta_object_name": "FENGYUN 1C DEB",
        "meta_object_id": "1999-025EZQ",
        "meta_epoch": "2025-12-23T19:34:04.155168",
        "meta_mean_motion": 14.24013723,
        "meta_eccentricity": 0.03579328,
        "meta_inclination": 98.2311,
        "meta_ra_of_asc_node": 201.2595,
        "meta_arg_of_pericenter": 27.8248,
        "meta_mean_anomaly": 33.133,
        "meta_ephemeris_type": 0,
        "meta_classification_type": "U",
        "meta_norad_cat_id": 46990,
        "meta_element_set_no": 999,
        "meta_rev_at_epoch": 8687,
        "meta_bstar": 0.0020956671,
        "meta_mean_motion_dot": 9.355e-05,
        "meta_mean_motion_ddot": 0,
        "tle_line1": "1 46990U 99025EZQ 25357.81532587  .00009355  00000+0  20957-2 0  9990",
        "tle_line2": "2 46990  98.2311 201.2595 0357932  27.8248  33.1330 14.24013723 86877"
      },
      "geometry": {
        "type": "Point",
        "coordinates": [
          2.2479849354129358,
          -68.32261364399285
        ]
      }
    },
    {
      "type": "Feature",
      "properties": {
        "norad_id": 46992,
        "name": "FENGYUN 1C DEB",
        "group": "fengyun-1c-debris",
        "lat": -79.99174684906818,
        "lon": 104.08947947110252,
        "alt_km": 940.1034751520556,
        "timestamp": "2025-12-26T07:29:18.746275+00:00",
        "meta_object_name": "FENGYUN 1C DEB",
        "meta_object_id": "1999-025EZS",
        "meta_epoch": "2025-12-24T16:30:54.083808",
        "meta_mean_motion": 14.0071494,
        "meta_eccentricity": 0.00724273,
        "meta_inclination": 98.9011,
        "meta_ra_of_asc_node": 345.133,
        "meta_arg_of_pericenter": 127.6993,
        "meta_mean_anomaly": 233.0769,
        "meta_ephemeris_type": 0,
        "meta_classification_type": "U",
        "meta_norad_cat_id": 46992,
        "meta_element_set_no": 999,
        "meta_rev_at_epoch": 61124,
        "meta_bstar": 0.00045239816,
        "meta_mean_motion_dot": 6.47e-06,
        "meta_mean_motion_ddot": 0,
        "tle_line1": "1 46992U 99025EZS 25358.68812597  .00000647  00000+0  45240-3 0  9998",
        "tle_line2": "2 46992  98.9011 345.1330 0072427 127.6993 233.0769 14.00714940611242"
      },
      "geometry": {
        "type": "Point",
        "coordinates": [
          104.08947947110252,
          -79.99174684906818
        ]
      }
    },
    {
      "type": "Feature",
      "properties": {
        "norad_id": 46993,
        "name": "FENGYUN 1C DEB",
        "group": "fengyun-1c-debris",
        "lat": 11.388889883024063,
        "lon": 115.72560286490958,
        "alt_km": 1059.7922136401958,
        "timestamp": "2025-12-26T07:29:18.746285+00:00",
        "meta_object_name": "FENGYUN 1C DEB",
        "meta_object_id": "1999-025EZT",
        "meta_epoch": "2025-12-18T13:48:38.255328",
        "meta_mean_motion": 13.69154142,
        "meta_eccentricity": 0.02625123,
        "meta_inclination": 98.7233,
        "meta_ra_of_asc_node": 110.4847,
        "meta_arg_of_pericenter": 283.8917,
        "meta_mean_anomaly": 132.0062,
        "meta_ephemeris_type": 0,
        "meta_classification_type": "U",
        "meta_norad_cat_id": 46993,
        "meta_element_set_no": 999,
        "meta_rev_at_epoch": 60337,
        "meta_bstar": 0.00040493614,
        "meta_mean_motion_dot": 4.06e-06,
        "meta_mean_motion_ddot": 0,
        "tle_line1": "1 46993U 99025EZT 25352.57544277  .00000406  00000+0  40494-3 0  9997",
        "tle_line2": "2 46993  98.7233 110.4847 0262512 283.8917 132.0062 13.69154142603375"
      },
      "geometry": {
        "type": "Point",
        "coordinates": [
          115.72560286490958,
          11.388889883024063
        ]
      }
    },
    {
      "type": "Feature",
      "properties": {
        "norad_id": 46995,
        "name": "FENGYUN 1C DEB",
        "group": "fengyun-1c-debris",
        "lat": 56.50528976749472,
        "lon": -85.56821486108956,
        "alt_km": 831.1308407846336,
        "timestamp": "2025-12-26T07:29:18.746297+00:00",
        "meta_object_name": "FENGYUN 1C DEB",
        "meta_object_id": "1999-025EZV",
        "meta_epoch": "2025-12-23T04:26:24.187488",
        "meta_mean_motion": 13.8641105,
        "meta_eccentricity": 0.01880773,
        "meta_inclination": 98.595,
        "meta_ra_of_asc_node": 78.3463,
        "meta_arg_of_pericenter": 89.717,
        "meta_mean_anomaly": 272.5537,
        "meta_ephemeris_type": 0,
        "meta_classification_type": "U",
        "meta_norad_cat_id": 46995,
        "meta_element_set_no": 999,
        "meta_rev_at_epoch": 60613,
        "meta_bstar": 0.0022808923,
        "meta_mean_motion_dot": 3e-05,
        "meta_mean_motion_ddot": 0,
        "tle_line1": "1 46995U 99025EZV 25357.18500217  .00003000  00000+0  22809-2 0  9999",
        "tle_line2": "2 46995  98.5950  78.3463 0188077  89.7170 272.5537 13.86411050606131"
      },
      "geometry": {
        "type": "Point",
        "coordinates": [
          -85.56821486108956,
          56.50528976749472
        ]
      }
    },
    {
      "type": "Feature",
      "properties": {
        "norad_id": 46997,
        "name": "FENGYUN 1C DEB",
        "group": "fengyun-1c-debris",
        "lat": -43.960587906173934,
        "lon": 48.72920203810913,
        "alt_km": 788.2295182321941,
        "timestamp": "2025-12-26T07:29:18.746307+00:00",
        "meta_object_name": "FENGYUN 1C DEB",
        "meta_object_id": "1999-025EZX",
        "meta_epoch": "2025-12-24T21:13:44.521248",
        "meta_mean_motion": 14.28060858,
        "meta_eccentricity": 0.0024736,
        "meta_inclination": 98.5571,
        "meta_ra_of_asc_node": 38.9817,
        "meta_arg_of_pericenter": 298.9798,
        "meta_mean_anomaly": 241.8889,
        "meta_ephemeris_type": 0,
        "meta_classification_type": "U",
        "meta_norad_cat_id": 46997,
        "meta_element_set_no": 999,
        "meta_rev_at_epoch": 62624,
        "meta_bstar": 0.0011356,
        "meta_mean_motion_dot": 2.787e-05,
        "meta_mean_motion_ddot": 0,
        "tle_line1": "1 46997U 99025EZX 25358.88454307  .00002787  00000+0  11356-2 0  9993",
        "tle_line2": "2 46997  98.5571  38.9817 0024736 298.9798 241.8889 14.28060858626244"
      },
      "geometry": {
        "type": "Point",
        "coordinates": [
          48.72920203810913,
          -43.960587906173934
        ]
      }
    }
  ]
}